SITRO-AIS 30            
1 59053U 24039C   24274.18052551  .00073467  00000+0  20784-2 0  9995
2 59053  97.4007 235.8863 0014147 186.5429 173.5632 15.35938837 32653
SITRO-AIS 31            
1 59054U 24039D   24274.16157241  .00063919  00000+0  17966-2 0  9995
2 59054  97.4005 235.9126 0013891 185.8416 174.2669 15.36188352 32678
SITRO-AIS 33            
1 59055U 24039E   24274.21003487  .00070459  00000+0  19715-2 0  9995
2 59055  97.4007 236.0100 0013600 186.0219 174.0864 15.36303711 32670
SITRO-AIS 35            
1 59056U 24039F   24274.20511432  .00067246  00000+0  18827-2 0  9992
2 59056  97.4006 236.0124 0013419 186.1252 173.9830 15.36302393 32678
SITRO-AIS 32            
1 59057U 24039G   24274.15623070  .00069434  00000+0  19535-2 0  9997
2 59057  97.4010 235.9286 0013697 186.5738 173.5328 15.36135798 32662
SITRO-AIS 34            
1 59058U 24039H   24274.21048293  .00071118  00000+0  19867-2 0  9993
2 59058  97.4007 236.0113 0013475 186.0075 174.1009 15.36353521 32673
SITRO-AIS 36            
1 59059U 24039J   24274.19490217  .00074757  00000+0  20828-2 0  9999
2 59059  97.4008 236.0267 0013332 185.9698 174.1389 15.36422025 32673
SITRO-AIS 49            
1 59060U 24039K   24274.20067473  .00070561  00000+0  19761-2 0  9990
2 59060  97.4008 236.0194 0013385 185.6833 174.4262 15.36278665 32672
SITRO-AIS 50            
1 59061U 24039L   24274.17738157  .00073508  00000+0  20351-2 0  9992
2 59061  97.4009 236.0481 0013214 184.8165 175.2954 15.36626244 32670
SITRO-AIS 51            
1 59062U 24039M   24274.17662257  .00071930  00000+0  19910-2 0  9996
2 59062  97.4007 236.0482 0013212 185.0651 175.0462 15.36639948 32678
SITRO-AIS 52            
1 59063U 24039N   24274.16307810  .00071836  00000+0  19803-2 0  9993
2 59063  97.4008 236.0692 0013003 184.6965 175.4159 15.36770316 32676
SITRO-AIS 25            
1 59066U 24039R   24274.15591107  .00016179  00000+0  14900-2 0  9991
2 59066  95.3938 168.5008 0166308 342.4948  17.0581 14.84741667 31678
SITRO-AIS 26            
1 59067U 24039S   24274.15894060  .00017162  00000+0  15836-2 0  9998
2 59067  95.3938 168.4971 0166374 342.5329  17.0209 14.84653018 31673
SITRO-AIS 27            
1 59068U 24039T   24274.20383136  .00017337  00000+0  15924-2 0  9994
2 59068  95.3942 168.5688 0165794 342.1391  17.4044 14.84887307 31687
SITRO-AIS 28            
1 59071U 24039U   24274.19813379  .00018165  00000+0  16668-2 0  9999
2 59071  95.3942 168.5760 0165594 342.1215  17.4221 14.84938897 31683
GRBBETA                 
1 60237U 24128C   24273.93203969  .00012865  00000+0  10897-2 0  9992
2 60237  61.9928 237.7186 0019211 344.9603  15.0912 14.98168326 12281
OOV-CUBE (TUBSAT-30)    
1 60240U 24128F   24273.63621425  .00008596  00000+0  75232-3 0  9995
2 60240  61.9965 239.0869 0017168 337.0091  23.0227 14.97243321 12244
ROBUSTA-3A (MEDITERRAN*)
1 60243U 24128J   24274.18179162  .00021477  00000+0  18306-2 0  9996
2 60243  61.9898 237.2263 0018105 327.3598  32.6370 14.97653357 12324
BEIJING 1               
1 28890U 05043A   24274.18181986  .00001521  00000+0  30823-3 0  9997
2 28890  98.2130  36.3614 0015997  78.9423 281.3576 14.62599948  9243
HUANJING 1A (HJ-1A)     
1 33320U 08041A   24274.20659666  .00006171  00000+0  80412-3 0  9995
2 33320  97.6348 276.1009 0021020  32.9962 327.2558 14.80765077865894
HUANJING 1B (HJ-1B)     
1 33321U 08041B   24274.19611477  .00003991  00000+0  51675-3 0  9998
2 33321  97.6283 280.5902 0039707  73.5905 286.9667 14.80829813865917
YAOGAN-4                
1 33446U 08061A   24274.08014221  .00004844  00000+0  63838-3 0  9992
2 33446  97.8817 204.0194 0013533 309.8628  50.1393 14.80502443853078
DEIMOS-1                
1 35681U 09041A   24274.18059421  .00002359  00000+0  36854-3 0  9993
2 35681  97.6842  90.5307 0002582  69.4529 290.6957 14.73692136814774
UK-DMC 2                
1 35683U 09041C   24274.18321629  .00003771  00000+0  58268-3 0  9999
2 35683  97.7963  57.6297 0001433  98.7924 261.3447 14.73863773814474
DMC3-FM1                
1 40715U 15032A   24274.15758585  .00002821  00000+0  34418-3 0  9996
2 40715  97.7317 149.9284 0004641 323.2864  36.8032 14.84097107497141
DMC3-FM2                
1 40716U 15032B   24274.17988252  .00002669  00000+0  32589-3 0  9992
2 40716  97.7371 151.0900 0006605 324.6127  35.4648 14.84107166497145
DMC3-FM3                
1 40717U 15032C   24274.14352245  .00003044  00000+0  37160-3 0  9995
2 40717  97.7420 152.3798 0007977 319.6098  40.4524 14.84013625497149
